0 FENGYUN 1C DEB
1 31317U 99025BPV 13282.48490939  .00008017  00000-0  37621-2 0  9135
2 31317 099.3934 021.4314 0175493 291.1961 128.4448 14.12599666333163
0 FENGYUN 1C DEB
1 31317U 99025BPV 13286.10948039  .00007144  00000-0  33495-2 0  9154
2 31317 099.3932 025.2315 0176144 280.9850 201.0321 14.12638122333676
0 FENGYUN 1C DEB
1 31317U 99025BPV 13287.22460036  .00007486  00000-0  35066-2 0  9160
2 31317 099.3937 026.4010 0176322 277.8783 111.9977 14.12649867333836
0 FENGYUN 1C DEB
1 31317U 99025BPV 13288.50475815  .00010715  00000-0  50024-2 0  9174
2 31317 099.3945 027.7438 0176554 274.3274 142.3353 14.12675779334015
0 FENGYUN 1C DEB
1 31317U 99025BPV 13290.07642481  .00009719  00000-0  45358-2 0  9181
2 31317 099.3947 029.3922 0176805 269.9507 215.3306 14.12700121334234
0 FENGYUN 1C DEB
1 31317U 99025BPV 13291.48015745  .00009359  00000-0  43650-2 0  9198
2 31317 099.3947 030.8652 0177078 266.0505 154.3789 14.12723758334430
0 FENGYUN 1C DEB
1 31317U 99025BPV 13293.24437404  .00010058  00000-0  46827-2 0  9203
2 31317 099.3940 032.7164 0177471 261.1539 126.9331 14.12754040334685
0 FENGYUN 1C DEB
1 31317U 99025BPV 13294.52518669  .00012253  00000-0  56927-2 0  9210
2 31317 099.3938 034.0600 0177819 257.6154 161.0663 14.12773339334861
0 FENGYUN 1C DEB
1 31317U 99025BPV 13296.09622921  .00012891  00000-0  59809-2 0  9222
2 31317 099.3931 035.7080 0178038 253.2861 231.4210 14.12805243335080
